COSMOS 2058             
1 20465U 90010A   26194.20859403  .00001563  00000+0  88939-4 0  9995
2 20465  82.4672 283.6920 0007880 258.2666 101.7681 15.12150324961202
SL-14 R/B               
1 20466U 90010B   26194.26819604  .00000196  00000+0  20767-4 0  9997
2 20466  82.5034 149.4519 0018312 244.1116 115.8212 14.83662413947108
SL-14 R/B               
1 20511U 90018B   26194.20440757  .00000212  00000+0  23597-4 0  9992
2 20511  82.5219 105.7911 0017174  43.0004 317.2549 14.82233335941170
HST                     
1 20580U 90037B   26194.28414128  .00003883  00000+0  11832-3 0  9995
2 20580  28.4725 262.1734 0002226  86.2676 273.8175 15.31049183792575
SL-16 R/B               
1 20625U 90046B   26194.03324273  .00000166  00000+0  11034-3 0  9994
2 20625  70.9983  34.6648 0012441 118.1378 242.1003 14.15023667866125
COSMOS 2084             
1 20663U 90055A   26194.21976694  .00000952  00000+0  78361-4 0  9996
2 20663  62.7886 267.2310 0007820 316.2597  43.7884 15.06219713955229
SL-6 R/B(2)             
1 20666U 90055D   26194.31108054  .00001044  00000+0  88225-4 0  9990
2 20666  62.7802 186.4731 0044862   8.7873 351.4002 15.04083364957082
SL-8 R/B                
1 20775U 90078B   26194.26606707  .00012397  00000+0  35125-3 0  9991
2 20775  82.9030 138.0578 0343824 310.1059  47.0484 14.93533485828011
SL-8 R/B                
1 21088U 91006B   26194.08714744  .00000079  00000+0  63857-4 0  9990
2 21088  82.9411  76.7648 0023537  46.1489 114.9816 13.77508876781330
OKEAN-3                 
1 21397U 91039A   26193.59672091  .00001556  00000+0  10634-3 0  9997
2 21397  82.5139 215.7386 0012213 264.5319  95.4515 15.05425475883829
COSMOS 2151             
1 21422U 91042A   26194.26782169  .00000671  00000+0  50994-4 0  9994
2 21422  82.4979 322.5107 0012150   2.0695 358.0577 15.00510303882026
SL-14 R/B               
1 21423U 91042B   26194.14895806  .00000185  00000+0  20366-4 0  9995
2 21423  82.4934 102.5505 0016798 183.6324 176.4771 14.81917402871657
ERS-1                   
1 21574U 91050A   26194.09104300  .00000153  00000+0  63482-4 0  9998
2 21574  98.7795 215.4215 0031779 188.0207 172.0476 14.39532110833773
ARIANE 40 R/B           
1 21610U 91050F   26194.12172711  .00000131  00000+0  51584-4 0  9990
2 21610  98.1863 241.5266 0004231  65.9959 294.1675 14.42971235837084
INTERCOSMOS 25          
1 21819U 91086A   26194.02953500  .00000466  00000+0  89799-4 0  9992
2 21819  82.6011 234.1716 1484463 206.5995 145.0883 12.12239182511873
SL-8 R/B                
1 21876U 92008B   26193.93371964  .00000109  00000+0  96078-4 0  9999
2 21876  82.9271 174.6446 0035535 142.7751 246.3179 13.75983338726642
SL-8 R/B                
1 21938U 92020B   26194.11353977  .00000035  00000+0  20994-4 0  9999
2 21938  82.9286  60.5973 0028027 309.6543 204.7125 13.75550280718372
USA 81                  
1 21949U 92023A   26193.98188943  .00000114  00000+0  34784-4 0  9997
2 21949  85.0052  59.1167 0002088  65.7055 294.4355 14.32404579112726
COSMOS 2219             
1 22219U 92076A   26194.15116696 -.00000190  00000+0 -74807-4 0  9998
2 22219  71.0614 115.7964 0018137   0.6237 359.4905 14.14109328736114
SL-16 R/B               
1 22220U 92076B   26194.21511331  .00000221  00000+0  13397-3 0  9991
2 22220  71.0005 283.9526 0015020 264.6325 120.7702 14.16876632739613
COSMOS 2221             
1 22236U 92080A   26194.28183876  .00000871  00000+0  74039-4 0  9991
2 22236  82.5045 158.7633 0015592 126.0434 234.2236 14.96600760799574
SL-16 R/B               
1 22285U 92093B   26194.17811171 -.00000199  00000+0 -77414-4 0  9998
2 22285  71.0220 100.8298 0002364 139.8557 220.2741 14.15466459730917
COSMOS 2228             
1 22286U 92094A   26194.21189936  .00000961  00000+0  79634-4 0  9993
2 22286  82.5189 117.1154 0016196 236.3565 123.6113 14.97672011794845
SL-16 R/B               
1 22566U 93016B   26194.30228766  .00000097  00000+0  74281-4 0  9997
2 22566  71.0084 311.3564 0008916 141.4397 218.7364 14.15311904719949
COSMOS 2242             
1 22626U 93024A   26194.31698600  .00000917  00000+0  77342-4 0  9994
2 22626  82.5198 146.5436 0014557 239.6025 120.3760 14.96981549799180
SL-16 R/B               
1 22803U 93059B   26194.25170414 -.00000232  00000+0 -90932-4 0  9992
2 22803  70.9903 106.3392 0016548  11.4267 348.7229 14.17249915697329
ARIANE 40 R/B           
1 22830U 93061H   26194.18138914  .00000079  00000+0  44652-4 0  9991
2 22830  98.4808 260.4969 0009477 272.3235  87.6864 14.32918102712078
COSMOS 2278             
1 23087U 94023A   26194.20216920 -.00000079  00000+0 -16571-4 0  9993
2 23087  71.0525 272.4963 0009750 208.6350 151.4238 14.14393300662556
SL-16 R/B               
1 23088U 94023B   26193.90955015 -.00000001  00000+0  24176-4 0  9999
2 23088  70.9982 167.9116 0001445 137.0066 223.1170 14.15023948663802
SL-16 R/B               
1 23343U 94074B   26194.04392360  .00000208  00000+0  34439-4 0  9994
2 23343  97.6986 219.6865 0006985 160.7187 227.7465 14.79523286705784
